COSMOS 2361 [-]         
1 25590U 98076A   22262.64999289  .00000044  00000+0  31439-4 0  9992
2 25590  82.9341 136.5491 0030561 308.4317  69.5054 13.73027642189169
COSMOS 2378 [-]         
1 26818U 01023A   22263.35997932  .00000052  00000+0  39844-4 0  9991
2 26818  82.9303 153.8898 0031677 250.7050 109.0688 13.73975412 67341
COSMOS 2389 [-]         
1 27436U 02026A   22263.05308380  .00000052  00000+0  38055-4 0  9995
2 27436  82.9466 100.0042 0047586 111.1739  46.7485 13.74982104 19428
COSMOS 2398 [-]         
1 27818U 03023A   22262.54943615  .00000030  00000+0  15770-4 0  9991
2 27818  82.9454  62.2641 0031851 148.4453 211.8621 13.72216760966296
COSMOS 2407 [+]         
1 28380U 04028A   22262.52061333  .00000075  00000+0  60674-4 0  9990
2 28380  82.9648   6.7816 0040422 113.5643 246.9763 13.76120267912096
COSMOS 2414 [+]         
1 28521U 05002A   22263.28371820  .00000084  00000+0  57975-4 0  9999
2 28521  82.9547 356.5400 0038931 263.7309  95.9420 13.87665437894709
COSMOS 2429 [-]         
1 32052U 07038A   22262.61080118  .00000054  00000+0  39750-4 0  9995
2 32052  82.9799 132.9566 0039782  91.1681 269.4034 13.74968834753843
COSMOS 2454 [-]         
1 35635U 09039A   22263.33736630  .00000066  00000+0  40841-4 0  9991
2 35635  82.9609 342.6738 0018454 203.7548 156.2759 13.89694479667871
COSMOS 2463 [+]         
1 36519U 10017A   22263.51716488  .00000029  00000+0  15815-4 0  9992
2 36519  82.9643 172.9927 0035469 321.1476 210.9770 13.71479860620815
